start=new Date('2023-06-17T00:00:00.000Z').valueOf();
sats=[{"APOAPSIS":"553.709","LAUNCH_DATE":"2023-03-24","ECCENTRICITY":"0.00012260","PERIAPSIS":"552.010","MEAN_ELEMENT_THEORY":"SGP4","MEAN_ANOMALY":"356.5246","FILE":"3934949","RCS_SIZE":"LARGE","NORAD_CAT_ID":"56028","REF_FRAME":"TEME","GP_ID":"234097976","OBJECT_NAME":"STARLINK-5779","TIME_SYSTEM":"UTC","REV_AT_EPOCH":"130","ARG_OF_PERICENTER":"255.2003","TLE_LINE2":"2 56028  42.9997  59.2122 0001226 255.2003 356.5246 15.04559713  1307","MEAN_MOTION_DOT":"-0.00122465","CLASSIFICATION_TYPE":"U","COUNTRY_CODE":"US","RA_OF_ASC_NODE":"59.2122","OBJECT_ID":"2023-042AU","DECAY_DATE":null,"SITE":"AFETR","MEAN_MOTION_DDOT":"0.0000000000000","ELEMENT_SET_NO":"999","CENTER_NAME":"EARTH","TLE_LINE1":"1 56028U 23042AU  23167.91667824 -.00122465  00000-0 -87250-2 0  9990","SEMIMAJOR_AXIS":"6930.995","PERIOD":"95.709","BSTAR":"-0.00872500000000","INCLINATION":"42.9997","OBJECT_TYPE":"PAYLOAD","MEAN_MOTION":"15.04559713","EPHEMERIS_TYPE":"0","EPOCH":"2023-06-16T22:00:00.999936"},{"OBJECT_ID":"2023-042AV","RA_OF_ASC_NODE":"59.3490","COUNTRY_CODE":"US","CLASSIFICATION_TYPE":"U","EPOCH":"2023-06-16T22:00:00.999936","EPHEMERIS_TYPE":"0","MEAN_MOTION":"15.04559914","INCLINATION":"42.9999","OBJECT_TYPE":"PAYLOAD","PERIOD":"95.709","BSTAR":"-0.00978770000000","TLE_LINE1":"1 56029U 23042AV  23167.91667824 -.00137076  00000-0 -97877-2 0  9991","SEMIMAJOR_AXIS":"6930.994","MEAN_MOTION_DDOT":"0.0000000000000","SITE":"AFETR","ELEMENT_SET_NO":"999","CENTER_NAME":"EARTH","DECAY_DATE":null,"REF_FRAME":"TEME","GP_ID":"234068459","NORAD_CAT_ID":"56029","FILE":"3934783","RCS_SIZE":"LARGE","ECCENTRICITY":"0.00013710","PERIAPSIS":"551.909","MEAN_ANOMALY":"287.3136","MEAN_ELEMENT_THEORY":"SGP4","LAUNCH_DATE":"2023-03-24","APOAPSIS":"553.809","MEAN_MOTION_DOT":"-0.00137076","TLE_LINE2":"2 56029  42.9999  59.3490 0001371 267.0296 287.3136 15.04559914 13467","REV_AT_EPOCH":"1346","ARG_OF_PERICENTER":"267.0296","OBJECT_NAME":"STARLINK-5774","TIME_SYSTEM":"UTC"},{"GP_ID":"234096978","REF_FRAME":"TEME","FILE":"3934949","NORAD_CAT_ID":"56030","RCS_SIZE":"LARGE","MEAN_ANOMALY":"5.0055","PERIAPSIS":"552.027","MEAN_ELEMENT_THEORY":"SGP4","ECCENTRICITY":"0.00013880","LAUNCH_DATE":"2023-03-24","APOAPSIS":"553.951","MEAN_MOTION_DOT":"-0.00056977","TLE_LINE2":"2 56030  42.9996  59.1715 0001388 263.8081   5.0055 15.04517448  1309","ARG_OF_PERICENTER":"263.8081","REV_AT_EPOCH":"130","TIME_SYSTEM":"UTC","OBJECT_NAME":"STARLINK-5781","OBJECT_ID":"2023-042AW","RA_OF_ASC_NODE":"59.1715","COUNTRY_CODE":"US","CLASSIFICATION_TYPE":"U","EPHEMERIS_TYPE":"0","EPOCH":"2023-06-16T22:00:00.999936","MEAN_MOTION":"15.04517448","OBJECT_TYPE":"PAYLOAD","INCLINATION":"42.9996","BSTAR":"-0.00401860000000","PERIOD":"95.712","SEMIMAJOR_AXIS":"6931.124","TLE_LINE1":"1 56030U 23042AW  23167.91667824 -.00056977  00000-0 -40186-2 0  9994","ELEMENT_SET_NO":"999","CENTER_NAME":"EARTH","SITE":"AFETR","MEAN_MOTION_DDOT":"0.0000000000000","DECAY_DATE":null},{"OBJECT_ID":"2023-042AX","RA_OF_ASC_NODE":"59.2612","COUNTRY_CODE":"US","CLASSIFICATION_TYPE":"U","EPOCH":"2023-06-16T22:00:00.999936","EPHEMERIS_TYPE":"0","MEAN_MOTION":"15.04539805","OBJECT_TYPE":"PAYLOAD","INCLINATION":"42.9997","BSTAR":"-0.00634610000000","PERIOD":"95.710","TLE_LINE1":"1 56031U 23042AX  23167.91667824 -.00089498  00000-0 -63461-2 0  9990","SEMIMAJOR_AXIS":"6931.056","ELEMENT_SET_NO":"999","CENTER_NAME":"EARTH","MEAN_MOTION_DDOT":"0.0000000000000","SITE":"AFETR","DECAY_DATE":null,"GP_ID":"234097228","REF_FRAME":"TEME","RCS_SIZE":"LARGE","FILE":"3934949","NORAD_CAT_ID":"56031","MEAN_ELEMENT_THEORY":"SGP4","PERIAPSIS":"552.082","MEAN_ANOMALY":"333.7179","ECCENTRICITY":"0.00012100","LAUNCH_DATE":"2023-03-24","APOAPSIS":"553.759","MEAN_MOTION_DOT":"-0.00089498","TLE_LINE2":"2 56031  42.9997  59.2612 0001210 257.4007 333.7179 15.04539805  1308","ARG_OF_PERICENTER":"257.4007","REV_AT_EPOCH":"130","TIME_SYSTEM":"UTC","OBJECT_NAME":"STARLINK-5785"},{"MEAN_MOTION":"15.04474725","EPOCH":"2023-06-16T22:00:00.999936","EPHEMERIS_TYPE":"0","BSTAR":"0.00004711700000","PERIOD":"95.714","OBJECT_TYPE":"PAYLOAD","INCLINATION":"43.0012","ELEMENT_SET_NO":"999","CENTER_NAME":"EARTH","MEAN_MOTION_DDOT":"0.0000000000000","SITE":"AFETR","SEMIMAJOR_AXIS":"6931.256","TLE_LINE1":"1 56032U 23042AY  23167.91667824  .00000463  00000-0  47117-4 0  9996","DECAY_DATE":null,"OBJECT_ID":"2023-042AY","RA_OF_ASC_NODE":"59.0380","CLASSIFICATION_TYPE":"U","COUNTRY_CODE":"US","MEAN_MOTION_DOT":"0.00000463","TLE_LINE2":"2 56032  43.0012  59.0380 0001404 259.5570  65.8652 15.04474725 13460","TIME_SYSTEM":"UTC","OBJECT_NAME":"STARLINK-5786","ARG_OF_PERICENTER":"259.5570","REV_AT_EPOCH":"1346","REF_FRAME":"TEME","GP_ID":"234068071","FILE":"3934726","NORAD_CAT_ID":"56032","RCS_SIZE":"LARGE","MEAN_ANOMALY":"65.8652","PERIAPSIS":"552.147","MEAN_ELEMENT_THEORY":"SGP4","ECCENTRICITY":"0.00014040","APOAPSIS":"554.094","LAUNCH_DATE":"2023-03-24"},{"COUNTRY_CODE":"US","CLASSIFICATION_TYPE":"U","OBJECT_ID":"2023-042AZ","RA_OF_ASC_NODE":"59.0782","SEMIMAJOR_AXIS":"6931.206","TLE_LINE1":"1 56033U 23042AZ  23167.91667824 -.00025868  00000-0 -18098-2 0  9999","SITE":"AFETR","MEAN_MOTION_DDOT":"0.0000000000000","ELEMENT_SET_NO":"999","CENTER_NAME":"EARTH","DECAY_DATE":null,"EPOCH":"2023-06-16T22:00:00.999936","EPHEMERIS_TYPE":"0","MEAN_MOTION":"15.04490793","INCLINATION":"43.0008","OBJECT_TYPE":"PAYLOAD","PERIOD":"95.713","BSTAR":"-0.00180980000000","ECCENTRICITY":"0.00009640","MEAN_ELEMENT_THEORY":"SGP4","PERIAPSIS":"552.403","MEAN_ANOMALY":"47.0712","LAUNCH_DATE":"2023-03-24","APOAPSIS":"553.739","REF_FRAME":"TEME","GP_ID":"234067580","FILE":"3934727","NORAD_CAT_ID":"56033","RCS_SIZE":"LARGE","REV_AT_EPOCH":"1346","ARG_OF_PERICENTER":"261.3519","OBJECT_NAME":"STARLINK-5784","TIME_SYSTEM":"UTC","MEAN_MOTION_DOT":"-0.00025868","TLE_LINE2":"2 56033  43.0008  59.0782 0000964 261.3519  47.0712 15.04490793 13468"},{"OBJECT_NAME":"STARLINK-5782","TIME_SYSTEM":"UTC","REV_AT_EPOCH":"130","ARG_OF_PERICENTER":"262.4686","TLE_LINE2":"2 56034  43.0015  58.9877 0001390 262.4686  84.3008 15.04613418  1304","MEAN_MOTION_DOT":"-0.00381477","APOAPSIS":"553.658","LAUNCH_DATE":"2023-03-24","ECCENTRICITY":"0.00013900","PERIAPSIS":"551.731","MEAN_ELEMENT_THEORY":"SGP4","MEAN_ANOMALY":"84.3008","FILE":"3934949","NORAD_CAT_ID":"56034","RCS_SIZE":"LARGE","GP_ID":"234097478","REF_FRAME":"TEME","DECAY_DATE":null,"SITE":"AFETR","MEAN_MOTION_DDOT":"0.0000000000000","ELEMENT_SET_NO":"999","CENTER_NAME":"EARTH","SEMIMAJOR_AXIS":"6930.830","TLE_LINE1":"1 56034U 23042BA  23167.91667824 -.00381477  00000-0 -28177-1 0  9999","PERIOD":"95.706","BSTAR":"-0.02817700000000","INCLINATION":"43.0015","OBJECT_TYPE":"PAYLOAD","MEAN_MOTION":"15.04613418","EPHEMERIS_TYPE":"0","EPOCH":"2023-06-16T22:00:00.999936","CLASSIFICATION_TYPE":"U","COUNTRY_CODE":"US","RA_OF_ASC_NODE":"58.9877","OBJECT_ID":"2023-042BA"},{"MEAN_MOTION_DDOT":"0.0000000000000","SITE":"AFETR","ELEMENT_SET_NO":"999","CENTER_NAME":"EARTH","TLE_LINE1":"1 56035U 23042BB  23167.91667824 -.00071231  00000-0 -50365-2 0  9999","SEMIMAJOR_AXIS":"6931.094","DECAY_DATE":null,"MEAN_MOTION":"15.04527206","EPOCH":"2023-06-16T22:00:00.999936","EPHEMERIS_TYPE":"0","PERIOD":"95.711","BSTAR":"-0.00503650000000","INCLINATION":"43.0002","OBJECT_TYPE":"PAYLOAD","CLASSIFICATION_TYPE":"U","COUNTRY_CODE":"US","OBJECT_ID":"2023-042BB","RA_OF_ASC_NODE":"59.1284","OBJECT_NAME":"STARLINK-5792","TIME_SYSTEM":"UTC","REV_AT_EPOCH":"130","ARG_OF_PERICENTER":"266.6063","MEAN_MOTION_DOT":"-0.00071231","TLE_LINE2":"2 56035  43.0002  59.1284 0001203 266.6063  20.7852 15.04527206  1304","ECCENTRICITY":"0.00012030","MEAN_ANOMALY":"20.7852","PERIAPSIS":"552.126","MEAN_ELEMENT_THEORY":"SGP4","APOAPSIS":"553.793","LAUNCH_DATE":"2023-03-24","GP_ID":"234097728","REF_FRAME":"TEME","RCS_SIZE":"LARGE","FILE":"3934949","NORAD_CAT_ID":"56035"},{"MEAN_MOTION":"15.04552074","EPHEMERIS_TYPE":"0","EPOCH":"2023-06-16T22:00:00.999936","BSTAR":"-0.06946100000000","PERIOD":"95.710","OBJECT_TYPE":"PAYLOAD","INCLINATION":"43.0016","ELEMENT_SET_NO":"999","CENTER_NAME":"EARTH","SITE":"AFETR","MEAN_MOTION_DDOT":"0.0000000000000","TLE_LINE1":"1 56036U 23042BC  23167.91667824 -.00915141  00000-0 -69461-1 0  9993","SEMIMAJOR_AXIS":"6931.018","DECAY_DATE":null,"OBJECT_ID":"2023-042BC","RA_OF_ASC_NODE":"58.9548","CLASSIFICATION_TYPE":"U","COUNTRY_CODE":"US","MEAN_MOTION_DOT":"-0.00915141","TLE_LINE2":"2 56036  43.0016  58.9548 0001454 264.9732  95.6004 15.04552074 13463","TIME_SYSTEM":"UTC","OBJECT_NAME":"STARLINK-5790","ARG_OF_PERICENTER":"264.9732","REV_AT_EPOCH":"1346","REF_FRAME":"TEME","GP_ID":"234068094","FILE":"3934728","NORAD_CAT_ID":"56036","RCS_SIZE":"LARGE","PERIAPSIS":"551.875","MEAN_ANOMALY":"95.6004","MEAN_ELEMENT_THEORY":"SGP4","ECCENTRICITY":"0.00014540","APOAPSIS":"553.891","LAUNCH_DATE":"2023-03-24"},{"OBJECT_TYPE":"PAYLOAD","INCLINATION":"43.0000","BSTAR":"-0.02893600000000","PERIOD":"93.837","EPOCH":"2023-06-16T22:00:00.999936","EPHEMERIS_TYPE":"0","MEAN_MOTION":"15.34583549","DECAY_DATE":null,"TLE_LINE1":"1 56037U 23042BD  23167.91667824 -.00908774  00000-0 -28936-1 0  9990","SEMIMAJOR_AXIS":"6840.295","ELEMENT_SET_NO":"999","CENTER_NAME":"EARTH","MEAN_MOTION_DDOT":"0.0000000000000","SITE":"AFETR","RA_OF_ASC_NODE":"48.8237","OBJECT_ID":"2023-042BD","COUNTRY_CODE":"US","CLASSIFICATION_TYPE":"U","TLE_LINE2":"2 56037  43.0000  48.8237 0001218 271.2208 290.4975 15.34583549  1303","MEAN_MOTION_DOT":"-0.00908774","ARG_OF_PERICENTER":"271.2208","REV_AT_EPOCH":"130","TIME_SYSTEM":"UTC","OBJECT_NAME":"STARLINK-5758","FILE":"3934949","NORAD_CAT_ID":"56037","RCS_SIZE":"LARGE","REF_FRAME":"TEME","GP_ID":"234098217","LAUNCH_DATE":"2023-03-24","APOAPSIS":"462.993","MEAN_ELEMENT_THEORY":"SGP4","PERIAPSIS":"461.327","MEAN_ANOMALY":"290.4975","ECCENTRICITY":"0.00012180"}];
